STARLINK-33991          
1 64122U 25110AC  26071.21415630  .00029872  00000+0  10168-2 0  9997
2 64122  53.1601  14.7028 0000925 104.3351 255.7752 15.30193876 46262
STARLINK-11727 [DTC]    
1 64123U 25111A   26070.96673031  .00207974  00000+0  15764-2 0  9999
2 64123  43.0002 320.4464 0001297 205.4503 154.6301 15.70954945 46995
STARLINK-11724 [DTC]    
1 64124U 25111B   26070.74414653  .00208078  00000+0  15735-2 0  9993
2 64124  42.9996 321.3397 0002840 161.7558 198.3412 15.71008970 46964
STARLINK-11725 [DTC]    
1 64125U 25111C   26070.69649233  .00227633  00000+0  17197-2 0  9994
2 64125  42.9997 321.8504 0002265 256.5964 103.4651 15.70972569 46950
STARLINK-11717 [DTC]    
1 64126U 25111D   26070.06597024  .00232347  00000+0  17625-2 0  9990
2 64126  43.0022 325.7249 0002455 281.1300  78.9291 15.70860200 46808
STARLINK-11721 [DTC]    
1 64127U 25111E   26070.98255563  .00180326  00000+0  13791-2 0  9990
2 64127  43.0001 319.6776 0001446 250.7844 109.2867 15.70830549 47000
STARLINK-11722 [DTC]    
1 64128U 25111F   26070.74945562  .00223953  00000+0  17005-2 0  9996
2 64128  43.0007 321.3797 0003642 279.5471  80.4985 15.70859512 46916
STARLINK-11679 [DTC]    
1 64129U 25111G   26070.98786673  .00187311  00000+0  14218-2 0  9999
2 64129  43.0017 319.7197 0001041 220.7463 139.3327 15.70986994 47003
STARLINK-11735 [DTC]    
1 64130U 25111H   26070.75476672  .00205077  00000+0  15606-2 0  9993
2 64130  42.9999 321.4227 0005132 295.0271  65.0063 15.70858784 46818
STARLINK-11720 [DTC]    
1 64131U 25111J   26070.99317580  .00249212  00000+0  18887-2 0  9995
2 64131  43.0009 319.7608 0002502 277.3451  82.7132 15.70830387 46954
STARLINK-11718 [DTC]    
1 64132U 25111K   26070.96766684  .00205240  00000+0  15640-2 0  9993
2 64132  43.0001 320.4475 0001076 139.8731 220.2216 15.70836369 47045
STARLINK-11716 [DTC]    
1 64133U 25111L   26070.96144649  .00250206  00000+0  18943-2 0  9996
2 64133  42.9998 320.3976 0001185 156.2226 203.8697 15.70851943 47042
STARLINK-11714 [DTC]    
1 64134U 25111M   26070.72290900  .00359861  00000+0  26750-2 0  9995
2 64134  42.9990 321.1654 0001189 269.9751  90.0981 15.70958291 46962
STARLINK-11712 [DTC]    
1 64135U 25111N   26071.00002315 -.00045795  00000+0 -35523-3 0  9998
2 64135  43.0001 320.3201 0001632 279.4908 238.8458 15.70847782  5991
STARLINK-34254          
1 64136U 25111P   26071.28320638  .00024813  00000+0  90764-3 0  9994
2 64136  43.0015  62.9120 0000247 187.9617 172.1231 15.27599214 45862
STARLINK-34230          
1 64137U 25111Q   26071.25001157  .00161306  00000+0  30552-2 0  9991
2 64137  42.9942  56.0576 0014169 134.3431  81.4653 15.46948646  5894
