[{"OBJECT_NAME":"STARLINK-33991","OBJECT_ID":"2025-110AC","EPOCH":"2026-03-12T05:08:23.104320","MEAN_MOTION":15.30193876,"ECCENTRICITY":9.255e-5,"INCLINATION":53.1601,"RA_OF_ASC_NODE":14.7028,"ARG_OF_PERICENTER":104.3351,"MEAN_ANOMALY":255.7752,"EPHEMERIS_TYPE":0,"CLASSIFICATION_TYPE":"U","NORAD_CAT_ID":64122,"ELEMENT_SET_NO":999,"REV_AT_EPOCH":4626,"BSTAR":0.0010168325,"MEAN_MOTION_DOT":0.00029872,"MEAN_MOTION_DDOT":0},{"OBJECT_NAME":"STARLINK-11727 [DTC]","OBJECT_ID":"2025-111A","EPOCH":"2026-03-11T23:12:05.498784","MEAN_MOTION":15.70954945,"ECCENTRICITY":0.0001297,"INCLINATION":43.0002,"RA_OF_ASC_NODE":320.4464,"ARG_OF_PERICENTER":205.4503,"MEAN_ANOMALY":154.6301,"EPHEMERIS_TYPE":0,"CLASSIFICATION_TYPE":"U","NORAD_CAT_ID":64123,"ELEMENT_SET_NO":999,"REV_AT_EPOCH":4699,"BSTAR":0.0015764,"MEAN_MOTION_DOT":0.00207974,"MEAN_MOTION_DDOT":0},{"OBJECT_NAME":"STARLINK-11724 [DTC]","OBJECT_ID":"2025-111B","EPOCH":"2026-03-11T17:51:34.260192","MEAN_MOTION":15.7100897,"ECCENTRICITY":0.00028408,"INCLINATION":42.9996,"RA_OF_ASC_NODE":321.3397,"ARG_OF_PERICENTER":161.7558,"MEAN_ANOMALY":198.3412,"EPHEMERIS_TYPE":0,"CLASSIFICATION_TYPE":"U","NORAD_CAT_ID":64124,"ELEMENT_SET_NO":999,"REV_AT_EPOCH":4696,"BSTAR":0.0015735178,"MEAN_MOTION_DOT":0.00208078,"MEAN_MOTION_DDOT":0},{"OBJECT_NAME":"STARLINK-11725 [DTC]","OBJECT_ID":"2025-111C","EPOCH":"2026-03-11T16:42:56.937312","MEAN_MOTION":15.70972569,"ECCENTRICITY":0.00022655,"INCLINATION":42.9997,"RA_OF_ASC_NODE":321.8504,"ARG_OF_PERICENTER":256.5964,"MEAN_ANOMALY":103.4651,"EPHEMERIS_TYPE":0,"CLASSIFICATION_TYPE":"U","NORAD_CAT_ID":64125,"ELEMENT_SET_NO":999,"REV_AT_EPOCH":4695,"BSTAR":0.0017197111,"MEAN_MOTION_DOT":0.00227633,"MEAN_MOTION_DDOT":0},{"OBJECT_NAME":"STARLINK-11717 [DTC]","OBJECT_ID":"2025-111D","EPOCH":"2026-03-11T01:34:59.828736","MEAN_MOTION":15.708602,"ECCENTRICITY":0.00024556,"INCLINATION":43.0022,"RA_OF_ASC_NODE":325.7249,"ARG_OF_PERICENTER":281.13,"MEAN_ANOMALY":78.9291,"EPHEMERIS_TYPE":0,"CLASSIFICATION_TYPE":"U","NORAD_CAT_ID":64126,"ELEMENT_SET_NO":999,"REV_AT_EPOCH":4680,"BSTAR":0.0017625256,"MEAN_MOTION_DOT":0.00232347,"MEAN_MOTION_DDOT":0},{"OBJECT_NAME":"STARLINK-11721 [DTC]","OBJECT_ID":"2025-111E","EPOCH":"2026-03-11T23:34:52.806432","MEAN_MOTION":15.70830549,"ECCENTRICITY":0.00014461,"INCLINATION":43.0001,"RA_OF_ASC_NODE":319.6776,"ARG_OF_PERICENTER":250.7844,"MEAN_ANOMALY":109.2867,"EPHEMERIS_TYPE":0,"CLASSIFICATION_TYPE":"U","NORAD_CAT_ID":64127,"ELEMENT_SET_NO":999,"REV_AT_EPOCH":4700,"BSTAR":0.0013790859,"MEAN_MOTION_DOT":0.00180326,"MEAN_MOTION_DDOT":0},{"OBJECT_NAME":"STARLINK-11722 [DTC]","OBJECT_ID":"2025-111F","EPOCH":"2026-03-11T17:59:12.965568","MEAN_MOTION":15.70859512,"ECCENTRICITY":0.00036426,"INCLINATION":43.0007,"RA_OF_ASC_NODE":321.3797,"ARG_OF_PERICENTER":279.5471,"MEAN_ANOMALY":80.4985,"EPHEMERIS_TYPE":0,"CLASSIFICATION_TYPE":"U","NORAD_CAT_ID":64128,"ELEMENT_SET_NO":999,"REV_AT_EPOCH":4691,"BSTAR":0.0017005385,"MEAN_MOTION_DOT":0.00223953,"MEAN_MOTION_DDOT":0},{"OBJECT_NAME":"STARLINK-11679 [DTC]","OBJECT_ID":"2025-111G","EPOCH":"2026-03-11T23:42:31.685472","MEAN_MOTION":15.70986994,"ECCENTRICITY":0.00010411,"INCLINATION":43.0017,"RA_OF_ASC_NODE":319.7197,"ARG_OF_PERICENTER":220.7463,"MEAN_ANOMALY":139.3327,"EPHEMERIS_TYPE":0,"CLASSIFICATION_TYPE":"U","NORAD_CAT_ID":64129,"ELEMENT_SET_NO":999,"REV_AT_EPOCH":4700,"BSTAR":0.0014218111,"MEAN_MOTION_DOT":0.00187311,"MEAN_MOTION_DDOT":0},{"OBJECT_NAME":"STARLINK-11735 [DTC]","OBJECT_ID":"2025-111H","EPOCH":"2026-03-11T18:06:51.844608","MEAN_MOTION":15.70858784,"ECCENTRICITY":0.00051329,"INCLINATION":42.9999,"RA_OF_ASC_NODE":321.4227,"ARG_OF_PERICENTER":295.0271,"MEAN_ANOMALY":65.0063,"EPHEMERIS_TYPE":0,"CLASSIFICATION_TYPE":"U","NORAD_CAT_ID":64130,"ELEMENT_SET_NO":999,"REV_AT_EPOCH":4681,"BSTAR":0.0015606456,"MEAN_MOTION_DOT":0.00205077,"MEAN_MOTION_DDOT":0},{"OBJECT_NAME":"STARLINK-11720 [DTC]","OBJECT_ID":"2025-111J","EPOCH":"2026-03-11T23:50:10.389120","MEAN_MOTION":15.70830387,"ECCENTRICITY":0.0002502,"INCLINATION":43.0009,"RA_OF_ASC_NODE":319.7608,"ARG_OF_PERICENTER":277.3451,"MEAN_ANOMALY":82.7132,"EPHEMERIS_TYPE":0,"CLASSIFICATION_TYPE":"U","NORAD_CAT_ID":64131,"ELEMENT_SET_NO":999,"REV_AT_EPOCH":4695,"BSTAR":0.0018887,"MEAN_MOTION_DOT":0.00249212,"MEAN_MOTION_DDOT":0},{"OBJECT_NAME":"STARLINK-11718 [DTC]","OBJECT_ID":"2025-111K","EPOCH":"2026-03-11T23:13:26.414976","MEAN_MOTION":15.70836369,"ECCENTRICITY":0.0001076,"INCLINATION":43.0001,"RA_OF_ASC_NODE":320.4475,"ARG_OF_PERICENTER":139.8731,"MEAN_ANOMALY":220.2216,"EPHEMERIS_TYPE":0,"CLASSIFICATION_TYPE":"U","NORAD_CAT_ID":64132,"ELEMENT_SET_NO":999,"REV_AT_EPOCH":4704,"BSTAR":0.001564,"MEAN_MOTION_DOT":0.0020524,"MEAN_MOTION_DDOT":0},{"OBJECT_NAME":"STARLINK-11716 [DTC]","OBJECT_ID":"2025-111L","EPOCH":"2026-03-11T23:04:28.976736","MEAN_MOTION":15.70851943,"ECCENTRICITY":0.0001185,"INCLINATION":42.9998,"RA_OF_ASC_NODE":320.3976,"ARG_OF_PERICENTER":156.2226,"MEAN_ANOMALY":203.8697,"EPHEMERIS_TYPE":0,"CLASSIFICATION_TYPE":"U","NORAD_CAT_ID":64133,"ELEMENT_SET_NO":999,"REV_AT_EPOCH":4704,"BSTAR":0.0018943,"MEAN_MOTION_DOT":0.00250206,"MEAN_MOTION_DDOT":0},{"OBJECT_NAME":"STARLINK-11714 [DTC]","OBJECT_ID":"2025-111M","EPOCH":"2026-03-11T17:20:59.337600","MEAN_MOTION":15.70958291,"ECCENTRICITY":0.00011897,"INCLINATION":42.999,"RA_OF_ASC_NODE":321.1654,"ARG_OF_PERICENTER":269.9751,"MEAN_ANOMALY":90.0981,"EPHEMERIS_TYPE":0,"CLASSIFICATION_TYPE":"U","NORAD_CAT_ID":64134,"ELEMENT_SET_NO":999,"REV_AT_EPOCH":4696,"BSTAR":0.0026749681,"MEAN_MOTION_DOT":0.00359861,"MEAN_MOTION_DDOT":0},{"OBJECT_NAME":"STARLINK-11712 [DTC]","OBJECT_ID":"2025-111N","EPOCH":"2026-03-12T00:00:02.000160","MEAN_MOTION":15.70847782,"ECCENTRICITY":0.00016328,"INCLINATION":43.0001,"RA_OF_ASC_NODE":320.3201,"ARG_OF_PERICENTER":279.4908,"MEAN_ANOMALY":238.8458,"EPHEMERIS_TYPE":0,"CLASSIFICATION_TYPE":"U","NORAD_CAT_ID":64135,"ELEMENT_SET_NO":999,"REV_AT_EPOCH":599,"BSTAR":-0.00035523384,"MEAN_MOTION_DOT":-0.00045795,"MEAN_MOTION_DDOT":0},{"OBJECT_NAME":"STARLINK-34254","OBJECT_ID":"2025-111P","EPOCH":"2026-03-12T06:47:49.031232","MEAN_MOTION":15.27599214,"ECCENTRICITY":2.475e-5,"INCLINATION":43.0015,"RA_OF_ASC_NODE":62.912,"ARG_OF_PERICENTER":187.9617,"MEAN_ANOMALY":172.1231,"EPHEMERIS_TYPE":0,"CLASSIFICATION_TYPE":"U","NORAD_CAT_ID":64136,"ELEMENT_SET_NO":999,"REV_AT_EPOCH":4586,"BSTAR":0.00090764068,"MEAN_MOTION_DOT":0.00024813,"MEAN_MOTION_DDOT":0},{"OBJECT_NAME":"STARLINK-34230","OBJECT_ID":"2025-111Q","EPOCH":"2026-03-12T06:00:00.999648","MEAN_MOTION":15.46948646,"ECCENTRICITY":0.00141698,"INCLINATION":42.9942,"RA_OF_ASC_NODE":56.0576,"ARG_OF_PERICENTER":134.3431,"MEAN_ANOMALY":81.4653,"EPHEMERIS_TYPE":0,"CLASSIFICATION_TYPE":"U","NORAD_CAT_ID":64137,"ELEMENT_SET_NO":999,"REV_AT_EPOCH":589,"BSTAR":0.0030552489,"MEAN_MOTION_DOT":0.00161306,"MEAN_MOTION_DDOT":0}]
